GECAM-B                 
1 47235U 20094B   26058.19405615  .00003224  00000+0  23073-3 0  9996
2 47235  28.9982  10.8844 0010635 257.2071 102.7339 15.01652363285175
STARLINK-35059          
1 65454U 25194W   26068.55023958  .00003669  00000+0  29003-3 0  9994
2 65454  97.6037 284.8767 0001888  81.8838 278.2601 15.01263903 29660
